SAUDISAT 5A             
1 43831U 18102A   25050.75915578  .00009526  00000+0  42992-3 0  9990
2 43831  97.3734 116.8627 0012106  41.3499 318.8651 15.21137537342168
SAUDISAT 5B             
1 43833U 18102C   25050.76739910  .00009024  00000+0  40130-3 0  9992
2 43833  97.3803 119.0989 0012870  43.9661 316.2596 15.21649978342268
2018-102D               
1 43834U 18102D   25050.83750633  .00022384  00000+0  69691-3 0  9993
2 43834  97.3921 126.6605 0009033  26.0716 334.0980 15.33257940342687
ISAT                    
1 43879U 18111D   25050.47160743  .00035759  00000+0  14975-2 0  9993
2 43879  97.6029 322.8900 0008362 211.9475 148.1255 15.23425609336890
UWE-4                   
1 43880U 18111E   25050.27178446  .00030546  00000+0  13855-2 0  9997
2 43880  97.5966 321.8335 0011416 229.8582 130.1654 15.20710631336830
D-STAR ONE (SPARROW)    
1 43881U 18111F   25050.26860202  .00038269  00000+0  15608-2 0  9993
2 43881  97.6151 325.1791 0005275 264.0928  95.9707 15.24320673336948
LEMUR-2-REMY-COLTON     
1 43884U 18111J   25050.76171597  .00162724  00000+0  24014-2 0  9998
2 43884  97.6205 338.0166 0005394  97.3312 262.8555 15.54780396335799
JILIN-1 09              
1 43943U 19005B   25050.87420085  .00010595  00000+0  57655-3 0  9994
2 43943  97.4794 146.8665 0002962 357.3709   2.7507 15.14626413335997
JILIN-1 10              
1 43946U 19005E   25050.83518024  .00010179  00000+0  50213-3 0  9995
2 43946  97.4792 147.3374 0009968 158.9237 201.2410 15.18063025335947
EGYPTSAT-A (MISRSAT-A)  
1 44047U 19008A   25050.75475874  .00001545  00000+0  25241-3 0  9997
2 44047  98.0097 117.4651 0001006  89.2374 270.8948 14.72275986322252
EMISAT                  
1 44078U 19018A   25050.76550507  .00000545  00000+0  17247-3 0  9996
2 44078  98.3036 110.5417 0017731 231.0325 128.9287 14.43778182310442
JILIN-1 GAOFEN 3A       
1 44312U 19032C   25050.61392303  .00016303  00000+0  76295-3 0  9992
2 44312  44.9819 106.5784 0010286  42.7245 317.4433 15.19576144314199
XIAOXIANG 4             
1 44313U 19032D   25050.73342262  .00054582  00000+0  13740-2 0  9991
2 44313  44.9934  65.0272 0014059  61.3434 298.8865 15.39097166314733
WT 1A                   
1 44315U 19032F   25050.76525446  .00033909  00000+0  11219-2 0  9992
2 44315  44.9883  70.0544 0012500  74.2797 285.9465 15.30745297314638
WT 1B                   
1 44316U 19032G   25050.69510874  .00018142  00000+0  98217-3 0  9990
2 44316  44.9777 149.1448 0013559   6.4755 353.6296 15.14366583313653
PROX-1                  
1 44339U 19036A   25050.73064118  .00019488  00000+0  27120-2 0  9997
2 44339  23.9982  61.5417 0007419 254.2522 105.7156 14.76244666301831
NPSAT1                  
1 44340U 19036B   25050.48378075  .00014268  00000+0  24246-2 0  9998
2 44340  23.9990 105.1926 0009114 176.5275 183.5283 14.67452805301322
FORMOSAT 7-3            
1 44343U 19036E   25050.74584986  .00010965  00000+0  65617-3 0  9998
2 44343  23.9980 249.6037 0001471 126.4119 233.6521 15.08864194310438
FORMOSAT 7-1            
1 44349U 19036L   25050.41585378  .00014525  00000+0  87556-3 0  9996
2 44349  23.9996  67.8619 0001858  92.1618 267.9098 15.08864038312055
FORMOSAT 7-4            
1 44350U 19036M   25050.50364977  .00014064  00000+0  84729-3 0  9995
2 44350  23.9980 129.3446 0002218 129.7937 230.2762 15.08858158311487
FORMOSAT 7-2            
1 44351U 19036N   25050.65846997  .00011335  00000+0  67927-3 0  9998
2 44351  23.9969 182.6082 0002172 131.8336 228.2353 15.08847159311076
FORMOSAT 7-6            
1 44353U 19036Q   25050.19539377  .00011239  00000+0  67329-3 0  9999
2 44353  24.0000   6.6152 0001360 115.1346 244.9299 15.08853027309187
FORMOSAT 7-5            
1 44358U 19036V   25050.37151183  .00013655  00000+0  82181-3 0  9996
2 44358  23.9998 305.1889 0001238 127.1361 232.9255 15.08872686309736
METEOR-M2 2             
1 44387U 19038A   25050.75901549  .00000327  00000+0  16187-3 0  9996
2 44387  98.8625  27.4329 0001227  22.2716 337.8515 14.24142938292626
SONATE                  
1 44400U 19038Q   25050.59614053  .00084814  00000+0  10564-2 0  9990
2 44400  97.7102  65.8639 0006652 300.2617  59.7979 15.59619874312271
COSMOS 2535             
1 44421U 19039A   25050.73976143  .00002877  00000+0  30206-3 0  9996
2 44421  97.6355  91.2488 0009262  27.4552 332.7154 14.90222013304644
QIANSHENG 1-01          
1 44486U 19052A   25050.71058934  .00076280  00000+0  13702-2 0  9999
2 44486  97.3727 126.1888 0008465 130.6121 229.5868 15.49576416304694
GLOBAL-4                
1 44499U 19054E   25050.53274275  .00036855  00000+0  91200-3 0  9997
2 44499  45.0130  70.5413 0006633  30.5119 329.6154 15.39857818305667
ZY-1 02D                
1 44528U 19059A   25050.77971597  .00000433  00000+0  16559-3 0  9999
2 44528  98.3807 122.6320 0002651 112.7253 247.4214 14.35437495285139
TAURUS-1 (JINNIUZUO 1)  
1 44530U 19059C   25050.74085686  .00015211  00000+0  29672-2 0  9993
2 44530  98.5914 185.2185 0009072  11.9016 348.2397 14.63039710287861
ZHUHAI-1 03A            
1 44534U 19060A   25050.76150344  .00081339  00000+0  13544-2 0  9990
2 44534  97.5068 190.5065 0010175 221.6614 138.3864 15.51685131302137
ZHUHAI-1 03B            
1 44536U 19060C   25050.74650076  .00040056  00000+0  11907-2 0  9999
2 44536  97.5010 189.7059 0011916 262.7402  97.2486 15.34575706302088
ZHUHAI-1 03C            
1 44537U 19060D   25050.74133046  .00043425  00000+0  12311-2 0  9996
2 44537  97.5256 190.8278 0020051 231.4946 128.4500 15.35915129302210
ZHUHAI-1 03D            
1 44538U 19060E   25050.75976234  .00031554  00000+0  11187-2 0  9992
2 44538  97.4827 185.4553 0012144 239.1742 120.8304 15.28959746302003
ZHUHAI-1 03E            
1 44539U 19060F   25050.74982091  .00033074  00000+0  11258-2 0  9998
2 44539  97.5067 187.5049 0012510 282.6164  77.3677 15.30271959301905
ATLAS 5 CENTAUR DEB     
1 44694U 18079BG  25044.72454121 -.00000125  00000+0  00000+0 0  9990
2 44694  12.9768  78.9124 4781750 221.2594  90.5694  1.77434086 37890
GAOFEN-7                
1 44703U 19072A   25050.76731581  .00009883  00000+0  44291-3 0  9997
2 44703  97.3041 123.4060 0008689 278.1463  81.8787 15.21398549294294
STARLINK-1010           
1 44716U 19074D   25050.42624671  .00022911  00000+0  15502-2 0  9996
2 44716  53.0527 107.1541 0001245  78.1501 281.9628 15.06442439290969
JILIN-1 GAOFEN 2A       
1 44777U 19075A   25050.83131599  .00016570  00000+0  67700-3 0  9993
2 44777  97.5447 122.5525 0008866   1.0948 359.0307 15.24421001291042
NINGXIA-1 1             
1 44779U 19076A   25050.81497995  .00000052  00000+0  11898-3 0  9994
2 44779  45.0058 175.2529 0010193  33.6123 326.5356 14.01889734270169
NINGXIA-1 5             
1 44783U 19076E   25050.83026380  .00000064  00000+0  12638-3 0  9993
2 44783  45.0056 174.5582 0010232  20.5899 339.5346 14.01914311270176
KL-ALPHA A              
1 44785U 19077A   25050.60936266  .00000105  00000+0  13234-3 0  9993
2 44785  88.9035 275.9995 0012868  78.4151 281.8447 13.55979611260335
CARTOSAT-3              
1 44804U 19081A   25050.76595896  .00008077  00000+0  38603-3 0  9990
2 44804  97.4973 113.3277 0014190  33.6599 326.5534 15.19193609290176
JILIN-1 GAOFEN 2B       
1 44836U 19086A   25050.87116856  .00012036  00000+0  67294-3 0  9995
2 44836  97.5441 121.8115 0016957 180.7924 179.3283 15.13510066287362
DUCHIFAT-3              
1 44854U 19089C   25050.47064921  .00059792  00000+0  17333-2 0  9997
2 44854  36.9495 329.3121 0008716 337.7225  22.3148 15.34472639286027
ANGELS                  
1 44876U 19092D   25050.50308715  .00046245  00000+0  12900-2 0  9995
2 44876  97.4637 246.6587 0007773 159.3786 200.7773 15.36578552287198
TIANQIN 1 (CAS-6)       
1 44879U 19093A   25050.80529752  .00006742  00000+0  68248-3 0  9993
2 44879  97.8134 133.5162 0011793 212.6377 147.4113 14.91235090280045
ETRSS-1                 
1 44880U 19093B   25050.75585327  .00007537  00000+0  75902-3 0  9997
2 44880  97.8137 133.6811 0012026 214.1024 145.9422 14.91398571280037
TIANYAN 01              
1 44881U 19093C   25050.75932261  .00002558  00000+0  30462-3 0  9991
2 44881  97.8022 128.6918 0012955 228.3686 131.6420 14.85156238279779
TIANYAN 02              
1 44882U 19093D   25050.79496302  .00013483  00000+0  11852-2 0  9997
2 44882  97.8251 138.1670 0011772 203.4013 156.6673 14.96618087280247
CBERS 4A                
1 44883U 19093E   25050.75175267  .00002847  00000+0  36899-3 0  9999
2 44883  97.8036 126.9074 0001359 302.4800  57.6282 14.81572365279646
WEILAI 1R               
1 44884U 19093F   25050.77399242  .00010574  00000+0  98581-3 0  9995
2 44884  97.8143 136.1591 0010389 209.3331 150.7307 14.94379930280215
FLORIPASAT-1            
1 44885U 19093G   25050.76780944  .00011900  00000+0  10568-2 0  9990
2 44885  97.8195 138.2951 0010993 209.6845 150.3753 14.96256582280311
SHUNTIAN                
1 44886U 19093H   25050.79667260  .00006382  00000+0  64563-3 0  9992
2 44886  97.8257 137.0015 0011998 223.6400 136.3870 14.91279493280188
2019-093L               
1 44889U 19093L   25050.79255058  .00006432  00000+0  66606-3 0  9999
2 44889  97.7975 129.8833 0012540 209.1865 150.8654 14.90332399279826
ELEKTRO-L 3             
1 44903U 19095A   25050.57614193 -.00000085  00000+0  00000+0 0  9994
2 44903   0.0167  95.6344 0001780 228.6957 108.7914  1.00270955 18864
GONETS-M 14             
1 44905U 19096A   25050.54866419  .00000030  00000+0  14758-3 0  9992
2 44905  82.5251  23.8331 0014506 122.8199 237.4280 12.42887205233727
GONETS-M 15             
1 44906U 19096B   25050.57412556  .00000047  00000+0  26897-3 0  9990
2 44906  82.5270  24.1946 0016012 144.3925 215.8226 12.42889918233694
GONETS-M 16             
1 44907U 19096C   25050.59972168  .00000027  00000+0  12680-3 0  9996
2 44907  82.5217  23.3465 0011085 183.6733 176.4267 12.42891094233685
